IRIDIUM 39              
1 25042U 97069D   25191.53559410  .00000364  00000+0  90017-4 0  9997
2 25042  86.3923 201.1248 0016117 223.7012 136.2917 14.49238444452347
IRIDIUM 38              
1 25043U 97069E   25192.17369323  .00000251  00000+0  76348-4 0  9997
2 25043  86.3949 223.0657 0003484  58.9254 301.2286 14.38131318449666
IRIDIUM 42              
1 25077U 97077A   25191.65204019  .00000247  00000+0  77815-4 0  9990
2 25077  86.3951 229.4832 0002842  79.1913 280.9604 14.36365144444560
IRIDIUM 44              
1 25078U 97077B   25191.54316679  .00000233  00000+0  67398-4 0  9995
2 25078  86.3961 211.3965 0001546  35.7183 324.4119 14.40254544447065
IRIDIUM 45              
1 25104U 97082A   25192.17470965  .00007895  00000+0  27969-3 0  9990
2 25104  86.3562  36.2355 0113292 241.1368 117.8471 15.22919484455942
IRIDIUM 24              
1 25105U 97082B   25192.18007686  .00000348  00000+0  99793-4 0  9999
2 25105  86.3883  70.1225 0011728   9.7208 350.4217 14.42116422446927
IRIDIUM 51              
1 25262U 98018A   25192.06855357  .00022160  00000+0  47102-3 0  9998
2 25262  86.3805  43.9941 0085328 156.8056 203.7087 15.40940067450929
IRIDIUM 57              
1 25273U 98019B   25191.37770179  .00000227  00000+0  71621-4 0  9996
2 25273  86.3987 135.5494 0002298  83.5917 276.5541 14.35905110428112
